{
  "type": "FeatureCollection",
  "features": [
    {
      "type": "Feature",
      "properties": {
        "norad_id": 35915,
        "name": "IRIDIUM 33 DEB",
        "group": "iridium-33-debris",
        "lat": 0.8872790747365534,
        "lon": 162.04570162439074,
        "alt_km": 622.4872232593252,
        "timestamp": "2025-12-14T14:39:29.754737+00:00",
        "meta_object_name": "IRIDIUM 33 DEB",
        "meta_object_id": "1997-051TY",
        "meta_epoch": "2025-12-07T18:02:16.498176",
        "meta_mean_motion": 14.80542095,
        "meta_eccentricity": 0.00101746,
        "meta_inclination": 86.3429,
        "meta_ra_of_asc_node": 345.2367,
        "meta_arg_of_pericenter": 205.9072,
        "meta_mean_anomaly": 154.1641,
        "meta_ephemeris_type": 0,
        "meta_classification_type": "U",
        "meta_norad_cat_id": 35915,
        "meta_element_set_no": 999,
        "meta_rev_at_epoch": 8012,
        "meta_bstar": 0.0030076362,
        "meta_mean_motion_dot": 0.00023136,
        "meta_mean_motion_ddot": 0,
        "tle_line1": "1 35915U 97051TY  25341.75157984  .00023136  00000+0  30076-2 0  9998",
        "tle_line2": "2 35915  86.3429 345.2367 0010174 205.9072 154.1641 14.80542095 80126"
      },
      "geometry": {
        "type": "Point",
        "coordinates": [
          162.04570162439074,
          0.8872790747365534
        ]
      }
    },
    {
      "type": "Feature",
      "properties": {
        "norad_id": 35918,
        "name": "IRIDIUM 33 DEB",
        "group": "iridium-33-debris",
        "lat": 45.328787939909944,
        "lon": -108.63773908176121,
        "alt_km": 700.5270641271254,
        "timestamp": "2025-12-14T14:39:29.754747+00:00",
        "meta_object_name": "IRIDIUM 33 DEB",
        "meta_object_id": "1997-051UB",
        "meta_epoch": "2025-12-13T00:32:30.278688",
        "meta_mean_motion": 14.51250424,
        "meta_eccentricity": 0.00275912,
        "meta_inclination": 86.401,
        "meta_ra_of_asc_node": 75.694,
        "meta_arg_of_pericenter": 168.7296,
        "meta_mean_anomaly": 313.6735,
        "meta_ephemeris_type": 0,
        "meta_classification_type": "U",
        "meta_norad_cat_id": 35918,
        "meta_element_set_no": 999,
        "meta_rev_at_epoch": 85211,
        "meta_bstar": 0.0017263949,
        "meta_mean_motion_dot": 6.917e-05,
        "meta_mean_motion_ddot": 0,
        "tle_line1": "1 35918U 97051UB  25347.02257267  .00006917  00000+0  17264-2 0  9994",
        "tle_line2": "2 35918  86.4010  75.6940 0027591 168.7296 313.6735 14.51250424852114"
      },
      "geometry": {
        "type": "Point",
        "coordinates": [
          -108.63773908176121,
          45.328787939909944
        ]
      }
    },
    {
      "type": "Feature",
      "properties": {
        "norad_id": 35929,
        "name": "IRIDIUM 33 DEB",
        "group": "iridium-33-debris",
        "lat": -50.09326213172522,
        "lon": 136.14169885604184,
        "alt_km": 577.7868173382813,
        "timestamp": "2025-12-14T14:39:29.754758+00:00",
        "meta_object_name": "IRIDIUM 33 DEB",
        "meta_object_id": "1997-051UN",
        "meta_epoch": "2025-12-13T15:15:35.730144",
        "meta_mean_motion": 15.02499578,
        "meta_eccentricity": 0.00180046,
        "meta_inclination": 86.3326,
        "meta_ra_of_asc_node": 312.2055,
        "meta_arg_of_pericenter": 34.4398,
        "meta_mean_anomaly": 325.7999,
        "meta_ephemeris_type": 0,
        "meta_classification_type": "U",
        "meta_norad_cat_id": 35929,
        "meta_element_set_no": 999,
        "meta_rev_at_epoch": 87793,
        "meta_bstar": 0.0026663267,
        "meta_mean_motion_dot": 0.00035671,
        "meta_mean_motion_ddot": 0,
        "tle_line1": "1 35929U 97051UN  25347.63583021  .00035671  00000+0  26663-2 0  9995",
        "tle_line2": "2 35929  86.3326 312.2055 0018004  34.4398 325.7999 15.02499578877938"
      },
      "geometry": {
        "type": "Point",
        "coordinates": [
          136.14169885604184,
          -50.09326213172522
        ]
      }
    },
    {
      "type": "Feature",
      "properties": {
        "norad_id": 36011,
        "name": "IRIDIUM 33 DEB",
        "group": "iridium-33-debris",
        "lat": 61.8659888260117,
        "lon": -152.25196008850705,
        "alt_km": 748.5362748618581,
        "timestamp": "2025-12-14T14:39:29.754768+00:00",
        "meta_object_name": "IRIDIUM 33 DEB",
        "meta_object_id": "1997-051US",
        "meta_epoch": "2025-12-11T21:42:29.079072",
        "meta_mean_motion": 14.41326157,
        "meta_eccentricity": 0.0017563,
        "meta_inclination": 86.3411,
        "meta_ra_of_asc_node": 35.7829,
        "meta_arg_of_pericenter": 218.6873,
        "meta_mean_anomaly": 266.0791,
        "meta_ephemeris_type": 0,
        "meta_classification_type": "U",
        "meta_norad_cat_id": 36011,
        "meta_element_set_no": 999,
        "meta_rev_at_epoch": 64528,
        "meta_bstar": 0.00076231,
        "meta_mean_motion_dot": 2.489e-05,
        "meta_mean_motion_ddot": 0,
        "tle_line1": "1 36011U 97051US  25345.90450323  .00002489  00000+0  76231-3 0  9992",
        "tle_line2": "2 36011  86.3411  35.7829 0017563 218.6873 266.0791 14.41326157645287"
      },
      "geometry": {
        "type": "Point",
        "coordinates": [
          -152.25196008850705,
          61.8659888260117
        ]
      }
    },
    {
      "type": "Feature",
      "properties": {
        "norad_id": 36012,
        "name": "IRIDIUM 33 DEB",
        "group": "iridium-33-debris",
        "lat": -72.7498855290788,
        "lon": 138.3392846802839,
        "alt_km": 683.6087775768146,
        "timestamp": "2025-12-14T14:39:29.754778+00:00",
        "meta_object_name": "IRIDIUM 33 DEB",
        "meta_object_id": "1997-051UT",
        "meta_epoch": "2025-12-13T03:36:39.839040",
        "meta_mean_motion": 14.19040776,
        "meta_eccentricity": 0.02117527,
        "meta_inclination": 86.4419,
        "meta_ra_of_asc_node": 307.3686,
        "meta_arg_of_pericenter": 261.8907,
        "meta_mean_anomaly": 95.8211,
        "meta_ephemeris_type": 0,
        "meta_classification_type": "U",
        "meta_norad_cat_id": 36012,
        "meta_element_set_no": 999,
        "meta_rev_at_epoch": 65490,
        "meta_bstar": 0.0088870781,
        "meta_mean_motion_dot": 0.0002327,
        "meta_mean_motion_ddot": 0,
        "tle_line1": "1 36012U 97051UT  25347.15046110  .00023270  00000+0  88871-2 0  9990",
        "tle_line2": "2 36012  86.4419 307.3686 0211752 261.8907  95.8211 14.19040776654909"
      },
      "geometry": {
        "type": "Point",
        "coordinates": [
          138.3392846802839,
          -72.7498855290788
        ]
      }
    },
    {
      "type": "Feature",
      "properties": {
        "norad_id": 36028,
        "name": "IRIDIUM 33 DEB",
        "group": "iridium-33-debris",
        "lat": 50.61976896294809,
        "lon": 121.32321273160538,
        "alt_km": 574.3617689679413,
        "timestamp": "2025-12-14T14:39:29.754792+00:00",
        "meta_object_name": "IRIDIUM 33 DEB",
        "meta_object_id": "1997-051VK",
        "meta_epoch": "2025-12-13T04:21:30.824928",
        "meta_mean_motion": 14.95340527,
        "meta_eccentricity": 0.00215137,
        "meta_inclination": 86.3216,
        "meta_ra_of_asc_node": 306.4905,
        "meta_arg_of_pericenter": 52.2095,
        "meta_mean_anomaly": 308.1078,
        "meta_ephemeris_type": 0,
        "meta_classification_type": "U",
        "meta_norad_cat_id": 36028,
        "meta_element_set_no": 999,
        "meta_rev_at_epoch": 87131,
        "meta_bstar": 0.0034254157,
        "meta_mean_motion_dot": 0.00038122,
        "meta_mean_motion_ddot": 0,
        "tle_line1": "1 36028U 97051VK  25347.18160677  .00038122  00000+0  34254-2 0  9993",
        "tle_line2": "2 36028  86.3216 306.4905 0021513  52.2095 308.1078 14.95340527871316"
      },
      "geometry": {
        "type": "Point",
        "coordinates": [
          121.32321273160538,
          50.61976896294809
        ]
      }
    },
    {
      "type": "Feature",
      "properties": {
        "norad_id": 36080,
        "name": "IRIDIUM 33 DEB",
        "group": "iridium-33-debris",
        "lat": 18.91516155192514,
        "lon": 8.435891563627662,
        "alt_km": 745.5641240312325,
        "timestamp": "2025-12-14T14:39:29.754802+00:00",
        "meta_object_name": "IRIDIUM 33 DEB",
        "meta_object_id": "1997-051VM",
        "meta_epoch": "2025-12-12T07:47:12.921504",
        "meta_mean_motion": 14.46603626,
        "meta_eccentricity": 0.0018143,
        "meta_inclination": 86.3202,
        "meta_ra_of_asc_node": 8.1679,
        "meta_arg_of_pericenter": 158.128,
        "meta_mean_anomaly": 202.0701,
        "meta_ephemeris_type": 0,
        "meta_classification_type": "U",
        "meta_norad_cat_id": 36080,
        "meta_element_set_no": 999,
        "meta_rev_at_epoch": 47408,
        "meta_bstar": 0.00097514146,
        "meta_mean_motion_dot": 3.542e-05,
        "meta_mean_motion_ddot": 0,
        "tle_line1": "1 36080U 97051VM  25346.32445511  .00003542  00000+0  97514-3 0  9996",
        "tle_line2": "2 36080  86.3202   8.1679 0018143 158.1280 202.0701 14.46603626474086"
      },
      "geometry": {
        "type": "Point",
        "coordinates": [
          8.435891563627662,
          18.91516155192514
        ]
      }
    }
  ]
}